<?xml version="1.0" encoding="UTF-8"?>
<kml xmlns="http://www.opengis.net/kml/2.2">
  <Document>
    <name>maternity hospital.csv</name>
    <Style id="icon-1899-0288D1-normal">
      <IconStyle>
        <color>ffd18802</color>
        <scale>1</scale>
        <Icon>
          <href>https://www.gstatic.com/mapspro/images/stock/503-wht-blank_maps.png</href>
        </Icon>
        <hotSpot x="32" xunits="pixels" y="64" yunits="insetPixels"/>
      </IconStyle>
      <LabelStyle>
        <scale>0</scale>
      </LabelStyle>
    </Style>
    <Style id="icon-1899-0288D1-highlight">
      <IconStyle>
        <color>ffd18802</color>
        <scale>1</scale>
        <Icon>
          <href>https://www.gstatic.com/mapspro/images/stock/503-wht-blank_maps.png</href>
        </Icon>
        <hotSpot x="32" xunits="pixels" y="64" yunits="insetPixels"/>
      </IconStyle>
      <LabelStyle>
        <scale>1</scale>
      </LabelStyle>
    </Style>
    <StyleMap id="icon-1899-0288D1">
      <Pair>
        <key>normal</key>
        <styleUrl>#icon-1899-0288D1-normal</styleUrl>
      </Pair>
      <Pair>
        <key>highlight</key>
        <styleUrl>#icon-1899-0288D1-highlight</styleUrl>
      </Pair>
    </StyleMap>
    <Placemark>
      <name>Dr.Trupti Kulthe (Udawant) BAMS | General Physician | Women Health | Thyroid | Diabetologist in Nashik | Vishwavinayak Clinic</name>
      <description><![CDATA[Description: <br>address: <br>phoneNumber: <br>Coordinates: 73.8252047,19.9515766<br>Category: doctor<br>Address: The Cennet Appartment, Jai Bhavani Rd, Jackak Nagar, Gandhi Nagar Airport Area, Deolali Gaon, Nashik, Maharashtra 422102, India<br>Latitude: 19.9515766<br>Longitude: 73.8252047<br>Rating: 4.5<br>Place_ID: ChIJpWQOlvmV3TsRMAqmc8xO3bo<br>Distance_m: 2262]]></description>
      <styleUrl>#icon-1899-0288D1</styleUrl>
      <ExtendedData>
        <Data name="Description">
          <value/>
        </Data>
        <Data name="address">
          <value/>
        </Data>
        <Data name="phoneNumber">
          <value/>
        </Data>
        <Data name="Coordinates">
          <value>73.8252047,19.9515766</value>
        </Data>
        <Data name="Category">
          <value>doctor</value>
        </Data>
        <Data name="Address">
          <value>The Cennet Appartment, Jai Bhavani Rd, Jackak Nagar, Gandhi Nagar Airport Area, Deolali Gaon, Nashik, Maharashtra 422102, India</value>
        </Data>
        <Data name="Latitude">
          <value>19.9515766</value>
        </Data>
        <Data name="Longitude">
          <value>73.8252047</value>
        </Data>
        <Data name="Rating">
          <value>4.5</value>
        </Data>
        <Data name="Place_ID">
          <value>ChIJpWQOlvmV3TsRMAqmc8xO3bo</value>
        </Data>
        <Data name="Distance_m">
          <value>2262.0</value>
        </Data>
      </ExtendedData>
      <Point>
        <coordinates>
          73.8252047,19.9515766,0
        </coordinates>
      </Point>
    </Placemark>
    <Placemark>
      <name>Dr. Wable Maternity Hospital</name>
      <description><![CDATA[Description: <br>address: <br>phoneNumber: <br>Coordinates: 73.8383853,19.9526081<br>Category: hospital<br>Address: 1st floor, Dr. Wable maternity hospital, Anand Bazar, Tilak Path, above kadri, bytco point, Rajwada Nagar, Nashik Road, Nashik, Maharashtra 422101, India<br>Latitude: 19.9526081<br>Longitude: 73.8383853<br>Rating: 4.9<br>Place_ID: ChIJFXb5FOTr3TsRNqTyOZc_3GQ<br>Distance_m: 2596]]></description>
      <styleUrl>#icon-1899-0288D1</styleUrl>
      <ExtendedData>
        <Data name="Description">
          <value/>
        </Data>
        <Data name="address">
          <value/>
        </Data>
        <Data name="phoneNumber">
          <value/>
        </Data>
        <Data name="Coordinates">
          <value>73.8383853,19.9526081</value>
        </Data>
        <Data name="Category">
          <value>hospital</value>
        </Data>
        <Data name="Address">
          <value>1st floor, Dr. Wable maternity hospital, Anand Bazar, Tilak Path, above kadri, bytco point, Rajwada Nagar, Nashik Road, Nashik, Maharashtra 422101, India</value>
        </Data>
        <Data name="Latitude">
          <value>19.9526081</value>
        </Data>
        <Data name="Longitude">
          <value>73.8383853</value>
        </Data>
        <Data name="Rating">
          <value>4.9</value>
        </Data>
        <Data name="Place_ID">
          <value>ChIJFXb5FOTr3TsRNqTyOZc_3GQ</value>
        </Data>
        <Data name="Distance_m">
          <value>2596.0</value>
        </Data>
      </ExtendedData>
      <Point>
        <coordinates>
          73.8383853,19.9526081,0
        </coordinates>
      </Point>
    </Placemark>
    <Placemark>
      <name>DR GADEKAR MATERNITY HOME</name>
      <description><![CDATA[Description: <br>address: <br>phoneNumber: <br>Coordinates: 73.7533591,19.9683982<br>Category: doctor<br>Address: GROUND FLOOR, Roongta Mall, Ambad - Uttam Nagar Rd, Incom Tax Colony, Cidco, Nashik, Maharashtra 422010, India<br>Latitude: 19.9683982<br>Longitude: 73.7533591<br>Rating: 4.9<br>Place_ID: ChIJNZhKporr3TsRMS1HaRLxscQ<br>Distance_m: 815]]></description>
      <styleUrl>#icon-1899-0288D1</styleUrl>
      <ExtendedData>
        <Data name="Description">
          <value/>
        </Data>
        <Data name="address">
          <value/>
        </Data>
        <Data name="phoneNumber">
          <value/>
        </Data>
        <Data name="Coordinates">
          <value>73.7533591,19.9683982</value>
        </Data>
        <Data name="Category">
          <value>doctor</value>
        </Data>
        <Data name="Address">
          <value>GROUND FLOOR, Roongta Mall, Ambad - Uttam Nagar Rd, Incom Tax Colony, Cidco, Nashik, Maharashtra 422010, India</value>
        </Data>
        <Data name="Latitude">
          <value>19.9683982</value>
        </Data>
        <Data name="Longitude">
          <value>73.7533591</value>
        </Data>
        <Data name="Rating">
          <value>4.9</value>
        </Data>
        <Data name="Place_ID">
          <value>ChIJNZhKporr3TsRMS1HaRLxscQ</value>
        </Data>
        <Data name="Distance_m">
          <value>815.0</value>
        </Data>
      </ExtendedData>
      <Point>
        <coordinates>
          73.7533591,19.9683982,0
        </coordinates>
      </Point>
    </Placemark>
    <Placemark>
      <name>Sai Shradha Maternity and Nursing Home</name>
      <description><![CDATA[Description: <br>address: <br>phoneNumber: <br>Coordinates: 73.7583544,19.9705513<br>Category: hospital<br>Address: Shop No.2, Kasihi Vishav Apartment, Near, Mahakali Rd, Saibaba Nagar, Uttam Nagar, Nashik, Maharashtra 422008, India<br>Latitude: 19.9705513<br>Longitude: 73.7583544<br>Rating: 4.8<br>Place_ID: ChIJGUvyvlzr3TsR8vik0-PleIE<br>Distance_m: 232]]></description>
      <styleUrl>#icon-1899-0288D1</styleUrl>
      <ExtendedData>
        <Data name="Description">
          <value/>
        </Data>
        <Data name="address">
          <value/>
        </Data>
        <Data name="phoneNumber">
          <value/>
        </Data>
        <Data name="Coordinates">
          <value>73.7583544,19.9705513</value>
        </Data>
        <Data name="Category">
          <value>hospital</value>
        </Data>
        <Data name="Address">
          <value>Shop No.2, Kasihi Vishav Apartment, Near, Mahakali Rd, Saibaba Nagar, Uttam Nagar, Nashik, Maharashtra 422008, India</value>
        </Data>
        <Data name="Latitude">
          <value>19.9705513</value>
        </Data>
        <Data name="Longitude">
          <value>73.7583544</value>
        </Data>
        <Data name="Rating">
          <value>4.8</value>
        </Data>
        <Data name="Place_ID">
          <value>ChIJGUvyvlzr3TsR8vik0-PleIE</value>
        </Data>
        <Data name="Distance_m">
          <value>232.0</value>
        </Data>
      </ExtendedData>
      <Point>
        <coordinates>
          73.7583544,19.9705513,0
        </coordinates>
      </Point>
    </Placemark>
    <Placemark>
      <name>Gajare Maternity Hospital</name>
      <description><![CDATA[Description: <br>address: <br>phoneNumber: <br>Coordinates: 73.8007694,19.9702414<br>Category: hospital<br>Address: Behind INOX, Khode Nagar, Tirumla Nagar, Wadala Gaon, Nashik, Maharashtra 422006, India<br>Latitude: 19.9702414<br>Longitude: 73.8007694<br>Rating: 5<br>Place_ID: ChIJv1XrHNzr3TsR3K2k8kLWqXg<br>Distance_m: 2265]]></description>
      <styleUrl>#icon-1899-0288D1</styleUrl>
      <ExtendedData>
        <Data name="Description">
          <value/>
        </Data>
        <Data name="address">
          <value/>
        </Data>
        <Data name="phoneNumber">
          <value/>
        </Data>
        <Data name="Coordinates">
          <value>73.8007694,19.9702414</value>
        </Data>
        <Data name="Category">
          <value>hospital</value>
        </Data>
        <Data name="Address">
          <value>Behind INOX, Khode Nagar, Tirumla Nagar, Wadala Gaon, Nashik, Maharashtra 422006, India</value>
        </Data>
        <Data name="Latitude">
          <value>19.9702414</value>
        </Data>
        <Data name="Longitude">
          <value>73.8007694</value>
        </Data>
        <Data name="Rating">
          <value>5.0</value>
        </Data>
        <Data name="Place_ID">
          <value>ChIJv1XrHNzr3TsR3K2k8kLWqXg</value>
        </Data>
        <Data name="Distance_m">
          <value>2265.0</value>
        </Data>
      </ExtendedData>
      <Point>
        <coordinates>
          73.8007694,19.9702414,0
        </coordinates>
      </Point>
    </Placemark>
    <Placemark>
      <name><![CDATA[Sharayu Women's Hospital]]></name>
      <description><![CDATA[Description: <br>address: <br>phoneNumber: <br>Coordinates: 73.7884264,19.9750323<br>Category: hospital<br>Address: Ganraj Colony, Near Indira Nagar Jogging Track, Wadala - Pathardi Rd, Indira Nagar, Nashik, Maharashtra 422009, India<br>Latitude: 19.9750323<br>Longitude: 73.7884264<br>Rating: 4.8<br>Place_ID: ChIJ95hhKyLr3TsRsW1lxlmV-1w<br>Distance_m: 766]]></description>
      <styleUrl>#icon-1899-0288D1</styleUrl>
      <ExtendedData>
        <Data name="Description">
          <value/>
        </Data>
        <Data name="address">
          <value/>
        </Data>
        <Data name="phoneNumber">
          <value/>
        </Data>
        <Data name="Coordinates">
          <value>73.7884264,19.9750323</value>
        </Data>
        <Data name="Category">
          <value>hospital</value>
        </Data>
        <Data name="Address">
          <value>Ganraj Colony, Near Indira Nagar Jogging Track, Wadala - Pathardi Rd, Indira Nagar, Nashik, Maharashtra 422009, India</value>
        </Data>
        <Data name="Latitude">
          <value>19.9750323</value>
        </Data>
        <Data name="Longitude">
          <value>73.7884264</value>
        </Data>
        <Data name="Rating">
          <value>4.8</value>
        </Data>
        <Data name="Place_ID">
          <value>ChIJ95hhKyLr3TsRsW1lxlmV-1w</value>
        </Data>
        <Data name="Distance_m">
          <value>766.0</value>
        </Data>
      </ExtendedData>
      <Point>
        <coordinates>
          73.7884264,19.9750323,0
        </coordinates>
      </Point>
    </Placemark>
    <Placemark>
      <name><![CDATA[Sunflower Health Plus | Nephrology Dialysis With Maternity & Nursing Home | Nashik]]></name>
      <description><![CDATA[Description: <br>address: <br>phoneNumber: <br>Coordinates: 73.7744078,19.9686476<br>Category: medical_clinic<br>Address: Unnamed Road, Pushpanjali, Rajiv Nagar, Nashik, Maharashtra 422009, India<br>Latitude: 19.9686476<br>Longitude: 73.7744078<br>Rating: 4.3<br>Place_ID: ChIJnVzPScPr3TsRNbQ9ZAZSrVs<br>Distance_m: 927]]></description>
      <styleUrl>#icon-1899-0288D1</styleUrl>
      <ExtendedData>
        <Data name="Description">
          <value/>
        </Data>
        <Data name="address">
          <value/>
        </Data>
        <Data name="phoneNumber">
          <value/>
        </Data>
        <Data name="Coordinates">
          <value>73.7744078,19.9686476</value>
        </Data>
        <Data name="Category">
          <value>medical_clinic</value>
        </Data>
        <Data name="Address">
          <value>Unnamed Road, Pushpanjali, Rajiv Nagar, Nashik, Maharashtra 422009, India</value>
        </Data>
        <Data name="Latitude">
          <value>19.9686476</value>
        </Data>
        <Data name="Longitude">
          <value>73.7744078</value>
        </Data>
        <Data name="Rating">
          <value>4.3</value>
        </Data>
        <Data name="Place_ID">
          <value>ChIJnVzPScPr3TsRNbQ9ZAZSrVs</value>
        </Data>
        <Data name="Distance_m">
          <value>927.0</value>
        </Data>
      </ExtendedData>
      <Point>
        <coordinates>
          73.7744078,19.9686476,0
        </coordinates>
      </Point>
    </Placemark>
    <Placemark>
      <name><![CDATA[Medini General & Women?s Ayurved clinic]]></name>
      <description><![CDATA[Description: <br>address: <br>phoneNumber: <br>Coordinates: 73.7845024,19.9746815<br>Category: medical_clinic<br>Address: 21, Siddhivinayak Housing Society, near Gajanan maharaj Temple, opp. Vivekanand Krida Hall, Kala Nagar, Indira Nagar, Nashik, Maharashtra 422009, India<br>Latitude: 19.9746815<br>Longitude: 73.7845024<br>Rating: 5<br>Place_ID: ChIJDb3CMvLr3TsRVo_--sa_IkI<br>Distance_m: 395]]></description>
      <styleUrl>#icon-1899-0288D1</styleUrl>
      <ExtendedData>
        <Data name="Description">
          <value/>
        </Data>
        <Data name="address">
          <value/>
        </Data>
        <Data name="phoneNumber">
          <value/>
        </Data>
        <Data name="Coordinates">
          <value>73.7845024,19.9746815</value>
        </Data>
        <Data name="Category">
          <value>medical_clinic</value>
        </Data>
        <Data name="Address">
          <value>21, Siddhivinayak Housing Society, near Gajanan maharaj Temple, opp. Vivekanand Krida Hall, Kala Nagar, Indira Nagar, Nashik, Maharashtra 422009, India</value>
        </Data>
        <Data name="Latitude">
          <value>19.9746815</value>
        </Data>
        <Data name="Longitude">
          <value>73.7845024</value>
        </Data>
        <Data name="Rating">
          <value>5.0</value>
        </Data>
        <Data name="Place_ID">
          <value>ChIJDb3CMvLr3TsRVo_--sa_IkI</value>
        </Data>
        <Data name="Distance_m">
          <value>395.0</value>
        </Data>
      </ExtendedData>
      <Point>
        <coordinates>
          73.7845024,19.9746815,0
        </coordinates>
      </Point>
    </Placemark>
    <Placemark>
      <name>Mauli Hospital (Maternity Home)</name>
      <description><![CDATA[Description: <br>address: <br>phoneNumber: <br>Coordinates: 73.806712,19.9767757<br>Category: hospital<br>Address: Mauli Hospital , Plot No 2, Survey No 31, Gokul Nagari, 4/1-5, Pujya Sri Sri Ravishankar Marg, behind Prabhu Empire, Nashik Road, Nashik, Maharashtra 422006, India<br>Latitude: 19.9767757<br>Longitude: 73.806712<br>Rating: 4.9<br>Place_ID: ChIJvYMWtGDr3TsRoprK6txRQnA<br>Distance_m: 1309]]></description>
      <styleUrl>#icon-1899-0288D1</styleUrl>
      <ExtendedData>
        <Data name="Description">
          <value/>
        </Data>
        <Data name="address">
          <value/>
        </Data>
        <Data name="phoneNumber">
          <value/>
        </Data>
        <Data name="Coordinates">
          <value>73.806712,19.9767757</value>
        </Data>
        <Data name="Category">
          <value>hospital</value>
        </Data>
        <Data name="Address">
          <value>Mauli Hospital , Plot No 2, Survey No 31, Gokul Nagari, 4/1-5, Pujya Sri Sri Ravishankar Marg, behind Prabhu Empire, Nashik Road, Nashik, Maharashtra 422006, India</value>
        </Data>
        <Data name="Latitude">
          <value>19.9767757</value>
        </Data>
        <Data name="Longitude">
          <value>73.806712</value>
        </Data>
        <Data name="Rating">
          <value>4.9</value>
        </Data>
        <Data name="Place_ID">
          <value>ChIJvYMWtGDr3TsRoprK6txRQnA</value>
        </Data>
        <Data name="Distance_m">
          <value>1309.0</value>
        </Data>
      </ExtendedData>
      <Point>
        <coordinates>
          73.806712,19.9767757,0
        </coordinates>
      </Point>
    </Placemark>
    <Placemark>
      <name>Dr.Avhad Maternity Home</name>
      <description><![CDATA[Description: <br>address: <br>phoneNumber: <br>Coordinates: 73.7702083,19.9869072<br>Category: doctor<br>Address: Dr Avhad Hospital, Dr Avhad Maternity Home, RD Circle, Rajmata Jijau marg, center mall, link road, Karmayogi Nagar, Govind Nagar, Nashik, Maharashtra 422008, India<br>Latitude: 19.9869072<br>Longitude: 73.7702083<br>Rating: 5<br>Place_ID: ChIJdc95RG3r3TsR6QfaXgWYfZM<br>Distance_m: 2915]]></description>
      <styleUrl>#icon-1899-0288D1</styleUrl>
      <ExtendedData>
        <Data name="Description">
          <value/>
        </Data>
        <Data name="address">
          <value/>
        </Data>
        <Data name="phoneNumber">
          <value/>
        </Data>
        <Data name="Coordinates">
          <value>73.7702083,19.9869072</value>
        </Data>
        <Data name="Category">
          <value>doctor</value>
        </Data>
        <Data name="Address">
          <value>Dr Avhad Hospital, Dr Avhad Maternity Home, RD Circle, Rajmata Jijau marg, center mall, link road, Karmayogi Nagar, Govind Nagar, Nashik, Maharashtra 422008, India</value>
        </Data>
        <Data name="Latitude">
          <value>19.9869072</value>
        </Data>
        <Data name="Longitude">
          <value>73.7702083</value>
        </Data>
        <Data name="Rating">
          <value>5.0</value>
        </Data>
        <Data name="Place_ID">
          <value>ChIJdc95RG3r3TsR6QfaXgWYfZM</value>
        </Data>
        <Data name="Distance_m">
          <value>2915.0</value>
        </Data>
      </ExtendedData>
      <Point>
        <coordinates>
          73.7702083,19.9869072,0
        </coordinates>
      </Point>
    </Placemark>
    <Placemark>
      <name>Nikam Hospital-Best laparoscopic Surgeon In Nashik | Best Gynecology Hospital in Nashik</name>
      <description><![CDATA[Description: <br>address: <br>phoneNumber: <br>Coordinates: 73.7574618,20.0116631<br>Category: doctor<br>Address: Gangapur Rd, next to Reliance Digital, near jehan circle, D'souza Colony, Nashik, Maharashtra 422005, India<br>Latitude: 20.0116631<br>Longitude: 73.7574618<br>Rating: 4.5<br>Place_ID: ChIJqfz3uo_r3TsRAozJ14V3ut8<br>Distance_m: 761]]></description>
      <styleUrl>#icon-1899-0288D1</styleUrl>
      <ExtendedData>
        <Data name="Description">
          <value/>
        </Data>
        <Data name="address">
          <value/>
        </Data>
        <Data name="phoneNumber">
          <value/>
        </Data>
        <Data name="Coordinates">
          <value>73.7574618,20.0116631</value>
        </Data>
        <Data name="Category">
          <value>doctor</value>
        </Data>
        <Data name="Address">
          <value><![CDATA[Gangapur Rd, next to Reliance Digital, near jehan circle, D'souza Colony, Nashik, Maharashtra 422005, India]]></value>
        </Data>
        <Data name="Latitude">
          <value>20.0116631</value>
        </Data>
        <Data name="Longitude">
          <value>73.7574618</value>
        </Data>
        <Data name="Rating">
          <value>4.5</value>
        </Data>
        <Data name="Place_ID">
          <value>ChIJqfz3uo_r3TsRAozJ14V3ut8</value>
        </Data>
        <Data name="Distance_m">
          <value>761.0</value>
        </Data>
      </ExtendedData>
      <Point>
        <coordinates>
          73.7574618,20.0116631,0
        </coordinates>
      </Point>
    </Placemark>
    <Placemark>
      <name>Urja maternity and Women?s care Hospital</name>
      <description><![CDATA[Description: <br>address: <br>phoneNumber: <br>Coordinates: 73.7728571,20.0003095<br>Category: hospital<br>Address: Sharanpur Rd, behind Soni Paithani sari, Racca Colony, Jejurkar Wadi, Kulkarni Colony, Nashik, Maharashtra 422002, India<br>Latitude: 20.0003095<br>Longitude: 73.7728571<br>Rating: 4.6<br>Place_ID: ChIJAQBAT6Dr3TsRffVsNDti9q4<br>Distance_m: 246]]></description>
      <styleUrl>#icon-1899-0288D1</styleUrl>
      <ExtendedData>
        <Data name="Description">
          <value/>
        </Data>
        <Data name="address">
          <value/>
        </Data>
        <Data name="phoneNumber">
          <value/>
        </Data>
        <Data name="Coordinates">
          <value>73.7728571,20.0003095</value>
        </Data>
        <Data name="Category">
          <value>hospital</value>
        </Data>
        <Data name="Address">
          <value>Sharanpur Rd, behind Soni Paithani sari, Racca Colony, Jejurkar Wadi, Kulkarni Colony, Nashik, Maharashtra 422002, India</value>
        </Data>
        <Data name="Latitude">
          <value>20.0003095</value>
        </Data>
        <Data name="Longitude">
          <value>73.7728571</value>
        </Data>
        <Data name="Rating">
          <value>4.6</value>
        </Data>
        <Data name="Place_ID">
          <value>ChIJAQBAT6Dr3TsRffVsNDti9q4</value>
        </Data>
        <Data name="Distance_m">
          <value>246.0</value>
        </Data>
      </ExtendedData>
      <Point>
        <coordinates>
          73.7728571,20.0003095,0
        </coordinates>
      </Point>
    </Placemark>
    <Placemark>
      <name>SHRADDHA HOSPITAL AND MATERNITY HOME</name>
      <description><![CDATA[Description: <br>address: <br>phoneNumber: <br>Coordinates: 73.7698513,20.0029537<br>Category: hospital<br>Address: College Rd, Adwait Colony, Canada Corner, Nashik, Maharashtra 422005, India<br>Latitude: 20.0029537<br>Longitude: 73.7698513<br>Rating: 4.6<br>Place_ID: ChIJm-M7bJ_r3TsR2yt_AwvD8sg<br>Distance_m: 792]]></description>
      <styleUrl>#icon-1899-0288D1</styleUrl>
      <ExtendedData>
        <Data name="Description">
          <value/>
        </Data>
        <Data name="address">
          <value/>
        </Data>
        <Data name="phoneNumber">
          <value/>
        </Data>
        <Data name="Coordinates">
          <value>73.7698513,20.0029537</value>
        </Data>
        <Data name="Category">
          <value>hospital</value>
        </Data>
        <Data name="Address">
          <value>College Rd, Adwait Colony, Canada Corner, Nashik, Maharashtra 422005, India</value>
        </Data>
        <Data name="Latitude">
          <value>20.0029537</value>
        </Data>
        <Data name="Longitude">
          <value>73.7698513</value>
        </Data>
        <Data name="Rating">
          <value>4.6</value>
        </Data>
        <Data name="Place_ID">
          <value>ChIJm-M7bJ_r3TsR2yt_AwvD8sg</value>
        </Data>
        <Data name="Distance_m">
          <value>792.0</value>
        </Data>
      </ExtendedData>
      <Point>
        <coordinates>
          73.7698513,20.0029537,0
        </coordinates>
      </Point>
    </Placemark>
    <Placemark>
      <name>Malpani Maternity Hospital</name>
      <description><![CDATA[Description: <br>address: <br>phoneNumber: <br>Coordinates: 73.7667671,20.0041112<br>Category: hospital<br>Address: Dolly House, College Rd, Vise Mala, Canada Corner, Nashik, Maharashtra 422005, India<br>Latitude: 20.0041112<br>Longitude: 73.7667671<br>Rating: 4.5<br>Place_ID: ChIJUWhyopvr3TsRGi0wFHSRQTE<br>Distance_m: 446]]></description>
      <styleUrl>#icon-1899-0288D1</styleUrl>
      <ExtendedData>
        <Data name="Description">
          <value/>
        </Data>
        <Data name="address">
          <value/>
        </Data>
        <Data name="phoneNumber">
          <value/>
        </Data>
        <Data name="Coordinates">
          <value>73.7667671,20.0041112</value>
        </Data>
        <Data name="Category">
          <value>hospital</value>
        </Data>
        <Data name="Address">
          <value>Dolly House, College Rd, Vise Mala, Canada Corner, Nashik, Maharashtra 422005, India</value>
        </Data>
        <Data name="Latitude">
          <value>20.0041112</value>
        </Data>
        <Data name="Longitude">
          <value>73.7667671</value>
        </Data>
        <Data name="Rating">
          <value>4.5</value>
        </Data>
        <Data name="Place_ID">
          <value>ChIJUWhyopvr3TsRGi0wFHSRQTE</value>
        </Data>
        <Data name="Distance_m">
          <value>446.0</value>
        </Data>
      </ExtendedData>
      <Point>
        <coordinates>
          73.7667671,20.0041112,0
        </coordinates>
      </Point>
    </Placemark>
    <Placemark>
      <name>Baste Maternity Hospital</name>
      <description><![CDATA[Description: <br>address: <br>phoneNumber: <br>Coordinates: 73.7584431,20.00729<br>Category: hospital<br>Address: College Rd, Kalpana Nagar, Krishi Nagar, Nashik, Maharashtra 422005, India<br>Latitude: 20.00729<br>Longitude: 73.7584431<br>Rating: 3.9<br>Place_ID: ChIJG_c2IYXr3TsRRDhZioqPV48<br>Distance_m: 497]]></description>
      <styleUrl>#icon-1899-0288D1</styleUrl>
      <ExtendedData>
        <Data name="Description">
          <value/>
        </Data>
        <Data name="address">
          <value/>
        </Data>
        <Data name="phoneNumber">
          <value/>
        </Data>
        <Data name="Coordinates">
          <value>73.7584431,20.00729</value>
        </Data>
        <Data name="Category">
          <value>hospital</value>
        </Data>
        <Data name="Address">
          <value>College Rd, Kalpana Nagar, Krishi Nagar, Nashik, Maharashtra 422005, India</value>
        </Data>
        <Data name="Latitude">
          <value>20.00729</value>
        </Data>
        <Data name="Longitude">
          <value>73.7584431</value>
        </Data>
        <Data name="Rating">
          <value>3.9</value>
        </Data>
        <Data name="Place_ID">
          <value>ChIJG_c2IYXr3TsRRDhZioqPV48</value>
        </Data>
        <Data name="Distance_m">
          <value>497.0</value>
        </Data>
      </ExtendedData>
      <Point>
        <coordinates>
          73.7584431,20.00729,0
        </coordinates>
      </Point>
    </Placemark>
    <Placemark>
      <name><![CDATA[Dcommunity Health Center (Chc) (N) Shree Siddhivinayak Maternity & Nursing Home]]></name>
      <description><![CDATA[Description: <br>address: <br>phoneNumber: <br>Coordinates: 73.782267,20.010884<br>Category: medical_clinic<br>Address: Unity Campus, Gangapur Rd, opposite K.T.H.M. College, Kausalya Nagar, Police Staff Colony, Nashik, Maharashtra 422003, India<br>Latitude: 20.010884<br>Longitude: 73.782267<br>Rating: <br>Place_ID: ChIJ77o_Q6Xr3TsR3w_2D13z-K4<br>Distance_m: 2085]]></description>
      <styleUrl>#icon-1899-0288D1</styleUrl>
      <ExtendedData>
        <Data name="Description">
          <value/>
        </Data>
        <Data name="address">
          <value/>
        </Data>
        <Data name="phoneNumber">
          <value/>
        </Data>
        <Data name="Coordinates">
          <value>73.782267,20.010884</value>
        </Data>
        <Data name="Category">
          <value>medical_clinic</value>
        </Data>
        <Data name="Address">
          <value>Unity Campus, Gangapur Rd, opposite K.T.H.M. College, Kausalya Nagar, Police Staff Colony, Nashik, Maharashtra 422003, India</value>
        </Data>
        <Data name="Latitude">
          <value>20.010884</value>
        </Data>
        <Data name="Longitude">
          <value>73.782267</value>
        </Data>
        <Data name="Rating">
          <value/>
        </Data>
        <Data name="Place_ID">
          <value>ChIJ77o_Q6Xr3TsR3w_2D13z-K4</value>
        </Data>
        <Data name="Distance_m">
          <value>2085.0</value>
        </Data>
      </ExtendedData>
      <Point>
        <coordinates>
          73.782267,20.010884,0
        </coordinates>
      </Point>
    </Placemark>
    <Placemark>
      <name><![CDATA[Dr Nishant K Gangurde's Rupali Hospital And Maternity Home]]></name>
      <description><![CDATA[Description: <br>address: <br>phoneNumber: <br>Coordinates: 73.7835743,20.0169859<br>Category: hospital<br>Address: Plot 11, Chaudhari Mala Rd, next to Racca Green Square, Hanuman Wadi, Professor Colony, Nashik, Maharashtra 422003, India<br>Latitude: 20.0169859<br>Longitude: 73.7835743<br>Rating: 5<br>Place_ID: ChIJTWXyo7Dr3TsRXN_HLiC88U8<br>Distance_m: 1204]]></description>
      <styleUrl>#icon-1899-0288D1</styleUrl>
      <ExtendedData>
        <Data name="Description">
          <value/>
        </Data>
        <Data name="address">
          <value/>
        </Data>
        <Data name="phoneNumber">
          <value/>
        </Data>
        <Data name="Coordinates">
          <value>73.7835743,20.0169859</value>
        </Data>
        <Data name="Category">
          <value>hospital</value>
        </Data>
        <Data name="Address">
          <value>Plot 11, Chaudhari Mala Rd, next to Racca Green Square, Hanuman Wadi, Professor Colony, Nashik, Maharashtra 422003, India</value>
        </Data>
        <Data name="Latitude">
          <value>20.0169859</value>
        </Data>
        <Data name="Longitude">
          <value>73.7835743</value>
        </Data>
        <Data name="Rating">
          <value>5.0</value>
        </Data>
        <Data name="Place_ID">
          <value>ChIJTWXyo7Dr3TsRXN_HLiC88U8</value>
        </Data>
        <Data name="Distance_m">
          <value>1204.0</value>
        </Data>
      </ExtendedData>
      <Point>
        <coordinates>
          73.7835743,20.0169859,0
        </coordinates>
      </Point>
    </Placemark>
    <Placemark>
      <name>Bhadane Maternity Hospital</name>
      <description><![CDATA[Description: <br>address: <br>phoneNumber: <br>Coordinates: 73.714699,19.987484<br>Category: hospital<br>Address: Ashoknagar, Satpur Colony, Nashik, Maharashtra 422007, India<br>Latitude: 19.987484<br>Longitude: 73.714699<br>Rating: 4.9<br>Place_ID: ChIJe8BPTvfs3TsR4fUyMwpJdi4<br>Distance_m: 2258]]></description>
      <styleUrl>#icon-1899-0288D1</styleUrl>
      <ExtendedData>
        <Data name="Description">
          <value/>
        </Data>
        <Data name="address">
          <value/>
        </Data>
        <Data name="phoneNumber">
          <value/>
        </Data>
        <Data name="Coordinates">
          <value>73.714699,19.987484</value>
        </Data>
        <Data name="Category">
          <value>hospital</value>
        </Data>
        <Data name="Address">
          <value>Ashoknagar, Satpur Colony, Nashik, Maharashtra 422007, India</value>
        </Data>
        <Data name="Latitude">
          <value>19.987484</value>
        </Data>
        <Data name="Longitude">
          <value>73.714699</value>
        </Data>
        <Data name="Rating">
          <value>4.9</value>
        </Data>
        <Data name="Place_ID">
          <value>ChIJe8BPTvfs3TsR4fUyMwpJdi4</value>
        </Data>
        <Data name="Distance_m">
          <value>2258.0</value>
        </Data>
      </ExtendedData>
      <Point>
        <coordinates>
          73.714699,19.987484,0
        </coordinates>
      </Point>
    </Placemark>
    <Placemark>
      <name><![CDATA[Divya Women's Clinic | Dr. Divya Pawar - Gynaecologist & Obstetrician]]></name>
      <description><![CDATA[Description: <br>address: <br>phoneNumber: <br>Coordinates: 73.7192144,19.9884845<br>Category: medical_clinic<br>Address: Shop No. 1, Savarkar Nagar, Ashoknagar, Satpur Colony, Nashik, Maharashtra 422007, India<br>Latitude: 19.9884845<br>Longitude: 73.7192144<br>Rating: 4.9<br>Place_ID: ChIJExii2x7t3TsRANOYqaAKZ30<br>Distance_m: 2662]]></description>
      <styleUrl>#icon-1899-0288D1</styleUrl>
      <ExtendedData>
        <Data name="Description">
          <value/>
        </Data>
        <Data name="address">
          <value/>
        </Data>
        <Data name="phoneNumber">
          <value/>
        </Data>
        <Data name="Coordinates">
          <value>73.7192144,19.9884845</value>
        </Data>
        <Data name="Category">
          <value>medical_clinic</value>
        </Data>
        <Data name="Address">
          <value>Shop No. 1, Savarkar Nagar, Ashoknagar, Satpur Colony, Nashik, Maharashtra 422007, India</value>
        </Data>
        <Data name="Latitude">
          <value>19.9884845</value>
        </Data>
        <Data name="Longitude">
          <value>73.7192144</value>
        </Data>
        <Data name="Rating">
          <value>4.9</value>
        </Data>
        <Data name="Place_ID">
          <value>ChIJExii2x7t3TsRANOYqaAKZ30</value>
        </Data>
        <Data name="Distance_m">
          <value>2662.0</value>
        </Data>
      </ExtendedData>
      <Point>
        <coordinates>
          73.7192144,19.9884845,0
        </coordinates>
      </Point>
    </Placemark>
    <Placemark>
      <name><![CDATA[Aditi Clinic & maternity care]]></name>
      <description><![CDATA[Description: <br>address: <br>phoneNumber: <br>Coordinates: 73.7358837,19.9901411<br>Category: medical_clinic<br>Address: Vector Stamp, Ghatola Galli, Vector Stamp, Satpur Gaon, Satpur Colony, Nashik, Maharashtra 422007, India<br>Latitude: 19.9901411<br>Longitude: 73.7358837<br>Rating: <br>Place_ID: ChIJA9YtCIbs3TsROR28WGeU8SY<br>Distance_m: 1276]]></description>
      <styleUrl>#icon-1899-0288D1</styleUrl>
      <ExtendedData>
        <Data name="Description">
          <value/>
        </Data>
        <Data name="address">
          <value/>
        </Data>
        <Data name="phoneNumber">
          <value/>
        </Data>
        <Data name="Coordinates">
          <value>73.7358837,19.9901411</value>
        </Data>
        <Data name="Category">
          <value>medical_clinic</value>
        </Data>
        <Data name="Address">
          <value>Vector Stamp, Ghatola Galli, Vector Stamp, Satpur Gaon, Satpur Colony, Nashik, Maharashtra 422007, India</value>
        </Data>
        <Data name="Latitude">
          <value>19.9901411</value>
        </Data>
        <Data name="Longitude">
          <value>73.7358837</value>
        </Data>
        <Data name="Rating">
          <value/>
        </Data>
        <Data name="Place_ID">
          <value>ChIJA9YtCIbs3TsROR28WGeU8SY</value>
        </Data>
        <Data name="Distance_m">
          <value>1276.0</value>
        </Data>
      </ExtendedData>
      <Point>
        <coordinates>
          73.7358837,19.9901411,0
        </coordinates>
      </Point>
    </Placemark>
    <Placemark>
      <name>Shri Samarth Maternity and Nursing Home</name>
      <description><![CDATA[Description: <br>address: <br>phoneNumber: <br>Coordinates: 73.7984792,20.0088636<br>Category: hospital<br>Address: Gajanan Chowk, Panchavati, Nashik, Maharashtra 422003, India<br>Latitude: 20.0088636<br>Longitude: 73.7984792<br>Rating: 3<br>Place_ID: ChIJq-tWKT_r3TsRS4_iP9QXraY<br>Distance_m: 691]]></description>
      <styleUrl>#icon-1899-0288D1</styleUrl>
      <ExtendedData>
        <Data name="Description">
          <value/>
        </Data>
        <Data name="address">
          <value/>
        </Data>
        <Data name="phoneNumber">
          <value/>
        </Data>
        <Data name="Coordinates">
          <value>73.7984792,20.0088636</value>
        </Data>
        <Data name="Category">
          <value>hospital</value>
        </Data>
        <Data name="Address">
          <value>Gajanan Chowk, Panchavati, Nashik, Maharashtra 422003, India</value>
        </Data>
        <Data name="Latitude">
          <value>20.0088636</value>
        </Data>
        <Data name="Longitude">
          <value>73.7984792</value>
        </Data>
        <Data name="Rating">
          <value>3.0</value>
        </Data>
        <Data name="Place_ID">
          <value>ChIJq-tWKT_r3TsRS4_iP9QXraY</value>
        </Data>
        <Data name="Distance_m">
          <value>691.0</value>
        </Data>
      </ExtendedData>
      <Point>
        <coordinates>
          73.7984792,20.0088636,0
        </coordinates>
      </Point>
    </Placemark>
    <Placemark>
      <name>Chandrama Maternity Home</name>
      <description><![CDATA[Description: <br>address: <br>phoneNumber: <br>Coordinates: 73.7895844,20.020903<br>Category: hospital<br>Address: Chandrama maternity home,janta raja colony,makhamalabad, road, Panchavati, Nashik, Maharashtra 422003, India<br>Latitude: 20.020903<br>Longitude: 73.7895844<br>Rating: 4.9<br>Place_ID: ChIJRxgwLrTr3TsRXp5U-ETcMRg<br>Distance_m: 1291]]></description>
      <styleUrl>#icon-1899-0288D1</styleUrl>
      <ExtendedData>
        <Data name="Description">
          <value/>
        </Data>
        <Data name="address">
          <value/>
        </Data>
        <Data name="phoneNumber">
          <value/>
        </Data>
        <Data name="Coordinates">
          <value>73.7895844,20.020903</value>
        </Data>
        <Data name="Category">
          <value>hospital</value>
        </Data>
        <Data name="Address">
          <value>Chandrama maternity home,janta raja colony,makhamalabad, road, Panchavati, Nashik, Maharashtra 422003, India</value>
        </Data>
        <Data name="Latitude">
          <value>20.020903</value>
        </Data>
        <Data name="Longitude">
          <value>73.7895844</value>
        </Data>
        <Data name="Rating">
          <value>4.9</value>
        </Data>
        <Data name="Place_ID">
          <value>ChIJRxgwLrTr3TsRXp5U-ETcMRg</value>
        </Data>
        <Data name="Distance_m">
          <value>1291.0</value>
        </Data>
      </ExtendedData>
      <Point>
        <coordinates>
          73.7895844,20.020903,0
        </coordinates>
      </Point>
    </Placemark>
    <Placemark>
      <name><![CDATA[Upasani Maternity & Nursing Home.]]></name>
      <description><![CDATA[Description: <br>address: <br>phoneNumber: <br>Coordinates: 73.8056327,20.0124496<br>Category: hospital<br>Address: 67, Rutushree, Hirawadi Road, Shriram Nagar, Panchavati, Shriram Nagar, Shivam Nagar, Adgaon Naka, Shree Dwaraka Nagari, Nashik, Maharashtra 422003, India<br>Latitude: 20.0124496<br>Longitude: 73.8056327<br>Rating: 4.6<br>Place_ID: ChIJobGGUEXq3TsRSbs_IyV9n9g<br>Distance_m: 1845]]></description>
      <styleUrl>#icon-1899-0288D1</styleUrl>
      <ExtendedData>
        <Data name="Description">
          <value/>
        </Data>
        <Data name="address">
          <value/>
        </Data>
        <Data name="phoneNumber">
          <value/>
        </Data>
        <Data name="Coordinates">
          <value>73.8056327,20.0124496</value>
        </Data>
        <Data name="Category">
          <value>hospital</value>
        </Data>
        <Data name="Address">
          <value>67, Rutushree, Hirawadi Road, Shriram Nagar, Panchavati, Shriram Nagar, Shivam Nagar, Adgaon Naka, Shree Dwaraka Nagari, Nashik, Maharashtra 422003, India</value>
        </Data>
        <Data name="Latitude">
          <value>20.0124496</value>
        </Data>
        <Data name="Longitude">
          <value>73.8056327</value>
        </Data>
        <Data name="Rating">
          <value>4.6</value>
        </Data>
        <Data name="Place_ID">
          <value>ChIJobGGUEXq3TsRSbs_IyV9n9g</value>
        </Data>
        <Data name="Distance_m">
          <value>1845.0</value>
        </Data>
      </ExtendedData>
      <Point>
        <coordinates>
          73.8056327,20.0124496,0
        </coordinates>
      </Point>
    </Placemark>
    <Placemark>
      <name>Vasu Maternity and Orthopedic Hospital</name>
      <description><![CDATA[Description: <br>address: <br>phoneNumber: <br>Coordinates: 73.8028192,20.0090873<br>Category: hospital<br>Address: First Floor, Hari Krishna Plaza, opp. Panchvari Bus Depo, Adgaon Naka, Panchavati, Nashik, Maharashtra 422003, India<br>Latitude: 20.0090873<br>Longitude: 73.8028192<br>Rating: 4.4<br>Place_ID: ChIJ7zmcCIHr3TsRWsBjz4CG8x8<br>Distance_m: 1142]]></description>
      <styleUrl>#icon-1899-0288D1</styleUrl>
      <ExtendedData>
        <Data name="Description">
          <value/>
        </Data>
        <Data name="address">
          <value/>
        </Data>
        <Data name="phoneNumber">
          <value/>
        </Data>
        <Data name="Coordinates">
          <value>73.8028192,20.0090873</value>
        </Data>
        <Data name="Category">
          <value>hospital</value>
        </Data>
        <Data name="Address">
          <value>First Floor, Hari Krishna Plaza, opp. Panchvari Bus Depo, Adgaon Naka, Panchavati, Nashik, Maharashtra 422003, India</value>
        </Data>
        <Data name="Latitude">
          <value>20.0090873</value>
        </Data>
        <Data name="Longitude">
          <value>73.8028192</value>
        </Data>
        <Data name="Rating">
          <value>4.4</value>
        </Data>
        <Data name="Place_ID">
          <value>ChIJ7zmcCIHr3TsRWsBjz4CG8x8</value>
        </Data>
        <Data name="Distance_m">
          <value>1142.0</value>
        </Data>
      </ExtendedData>
      <Point>
        <coordinates>
          73.8028192,20.0090873,0
        </coordinates>
      </Point>
    </Placemark>
    <Placemark>
      <name>Newninad Metkar Maternity Home</name>
      <description><![CDATA[Description: <br>address: <br>phoneNumber: <br>Coordinates: 73.7788576,20.0425502<br>Category: hospital<br>Address: Plot No.16, Swami Nagar, 03, Makhmalabad Rd, opp. Shanti Nagar, Gandhi Nagar, Makhmalabad, Nashik, Maharashtra 422003, India<br>Latitude: 20.0425502<br>Longitude: 73.7788576<br>Rating: 5<br>Place_ID: ChIJJ5lJc9nr3TsRbs2h5SY4MD0<br>Distance_m: 1508]]></description>
      <styleUrl>#icon-1899-0288D1</styleUrl>
      <ExtendedData>
        <Data name="Description">
          <value/>
        </Data>
        <Data name="address">
          <value/>
        </Data>
        <Data name="phoneNumber">
          <value/>
        </Data>
        <Data name="Coordinates">
          <value>73.7788576,20.0425502</value>
        </Data>
        <Data name="Category">
          <value>hospital</value>
        </Data>
        <Data name="Address">
          <value>Plot No.16, Swami Nagar, 03, Makhmalabad Rd, opp. Shanti Nagar, Gandhi Nagar, Makhmalabad, Nashik, Maharashtra 422003, India</value>
        </Data>
        <Data name="Latitude">
          <value>20.0425502</value>
        </Data>
        <Data name="Longitude">
          <value>73.7788576</value>
        </Data>
        <Data name="Rating">
          <value>5.0</value>
        </Data>
        <Data name="Place_ID">
          <value>ChIJJ5lJc9nr3TsRbs2h5SY4MD0</value>
        </Data>
        <Data name="Distance_m">
          <value>1508.0</value>
        </Data>
      </ExtendedData>
      <Point>
        <coordinates>
          73.7788576,20.0425502,0
        </coordinates>
      </Point>
    </Placemark>
    <Placemark>
      <name><![CDATA[DR.Patil Maternity & Nursing Home]]></name>
      <description><![CDATA[Description: <br>address: <br>phoneNumber: <br>Coordinates: 73.8366527,19.9495041<br>Category: hospital<br>Address: 208, 3rd Floor Star Plus Complex, opp. NMC Office (Durga Garden, Anand Nagar, Nashik Road, Nashik, Maharashtra 422101, India<br>Latitude: 19.9495041<br>Longitude: 73.8366527<br>Rating: 4.8<br>Place_ID: ChIJ6dZKC5KV3TsRMKVXdGDPS8M<br>Distance_m: 2207]]></description>
      <styleUrl>#icon-1899-0288D1</styleUrl>
      <ExtendedData>
        <Data name="Description">
          <value/>
        </Data>
        <Data name="address">
          <value/>
        </Data>
        <Data name="phoneNumber">
          <value/>
        </Data>
        <Data name="Coordinates">
          <value>73.8366527,19.9495041</value>
        </Data>
        <Data name="Category">
          <value>hospital</value>
        </Data>
        <Data name="Address">
          <value>208, 3rd Floor Star Plus Complex, opp. NMC Office (Durga Garden, Anand Nagar, Nashik Road, Nashik, Maharashtra 422101, India</value>
        </Data>
        <Data name="Latitude">
          <value>19.9495041</value>
        </Data>
        <Data name="Longitude">
          <value>73.8366527</value>
        </Data>
        <Data name="Rating">
          <value>4.8</value>
        </Data>
        <Data name="Place_ID">
          <value>ChIJ6dZKC5KV3TsRMKVXdGDPS8M</value>
        </Data>
        <Data name="Distance_m">
          <value>2207.0</value>
        </Data>
      </ExtendedData>
      <Point>
        <coordinates>
          73.8366527,19.9495041,0
        </coordinates>
      </Point>
    </Placemark>
    <Placemark>
      <name><![CDATA[Anand Nursing & Maternity Home - Best Maternity Hospital in Nashik | Normal Delivery | Baby Delivery Hospital]]></name>
      <description><![CDATA[Description: <br>address: <br>phoneNumber: <br>Coordinates: 73.836513,19.949857<br>Category: hospital<br>Address: Shop.no.24, Star Plus Complex, opp. Durga Mata Mandir, Anand Nagar, Nashik Road, Nashik, Maharashtra 422101, India<br>Latitude: 19.949857<br>Longitude: 73.836513<br>Rating: 4.2<br>Place_ID: ChIJH8LGMVeV3TsRQlSICV2kFaQ<br>Distance_m: 2237]]></description>
      <styleUrl>#icon-1899-0288D1</styleUrl>
      <ExtendedData>
        <Data name="Description">
          <value/>
        </Data>
        <Data name="address">
          <value/>
        </Data>
        <Data name="phoneNumber">
          <value/>
        </Data>
        <Data name="Coordinates">
          <value>73.836513,19.949857</value>
        </Data>
        <Data name="Category">
          <value>hospital</value>
        </Data>
        <Data name="Address">
          <value>Shop.no.24, Star Plus Complex, opp. Durga Mata Mandir, Anand Nagar, Nashik Road, Nashik, Maharashtra 422101, India</value>
        </Data>
        <Data name="Latitude">
          <value>19.949857</value>
        </Data>
        <Data name="Longitude">
          <value>73.836513</value>
        </Data>
        <Data name="Rating">
          <value>4.2</value>
        </Data>
        <Data name="Place_ID">
          <value>ChIJH8LGMVeV3TsRQlSICV2kFaQ</value>
        </Data>
        <Data name="Distance_m">
          <value>2237.0</value>
        </Data>
      </ExtendedData>
      <Point>
        <coordinates>
          73.836513,19.949857,0
        </coordinates>
      </Point>
    </Placemark>
    <Placemark>
      <name><![CDATA[Shivashish Women's Hospital. Dr.Sivanandini Acharya and Dr.Ashish waje]]></name>
      <description><![CDATA[Description: <br>address: <br>phoneNumber: <br>Coordinates: 73.834213,19.947595<br>Category: medical_clinic<br>Address: 1st and 2nd floor, Artillery Centre Rd, above RAPS Diagnostic centre, near Jain Temple, Anand Nagar, Nashik Road, Nashik, Maharashtra 422101, India<br>Latitude: 19.947595<br>Longitude: 73.834213<br>Rating: 4.8<br>Place_ID: ChIJ3_XRYpCV3TsRthprppS936c<br>Distance_m: 1914]]></description>
      <styleUrl>#icon-1899-0288D1</styleUrl>
      <ExtendedData>
        <Data name="Description">
          <value/>
        </Data>
        <Data name="address">
          <value/>
        </Data>
        <Data name="phoneNumber">
          <value/>
        </Data>
        <Data name="Coordinates">
          <value>73.834213,19.947595</value>
        </Data>
        <Data name="Category">
          <value>medical_clinic</value>
        </Data>
        <Data name="Address">
          <value>1st and 2nd floor, Artillery Centre Rd, above RAPS Diagnostic centre, near Jain Temple, Anand Nagar, Nashik Road, Nashik, Maharashtra 422101, India</value>
        </Data>
        <Data name="Latitude">
          <value>19.947595</value>
        </Data>
        <Data name="Longitude">
          <value>73.834213</value>
        </Data>
        <Data name="Rating">
          <value>4.8</value>
        </Data>
        <Data name="Place_ID">
          <value>ChIJ3_XRYpCV3TsRthprppS936c</value>
        </Data>
        <Data name="Distance_m">
          <value>1914.0</value>
        </Data>
      </ExtendedData>
      <Point>
        <coordinates>
          73.834213,19.947595,0
        </coordinates>
      </Point>
    </Placemark>
    <Placemark>
      <name><![CDATA[Mahajan Maternity Home |Pregnancy Care & Family Planning Center, Laparoscopic Surgery, Obstetrics and Gynecology Indira Nagar]]></name>
      <description><![CDATA[Description: <br>address: <br>phoneNumber: <br>Coordinates: 73.7747403,19.9518521<br>Category: hospital<br>Address: Mahajan Hospital, Wadala - Pathardi Rd, opposite Metro Zone, Samarth Nagar, Dnyaneshwar Nagar, Indira Nagar, Nashik, Maharashtra 422009, India<br>Latitude: 19.9518521<br>Longitude: 73.7747403<br>Rating: 4.9<br>Place_ID: ChIJsQJitiTr3TsRReAI9SJ5Vq4<br>Distance_m: 1218]]></description>
      <styleUrl>#icon-1899-0288D1</styleUrl>
      <ExtendedData>
        <Data name="Description">
          <value/>
        </Data>
        <Data name="address">
          <value/>
        </Data>
        <Data name="phoneNumber">
          <value/>
        </Data>
        <Data name="Coordinates">
          <value>73.7747403,19.9518521</value>
        </Data>
        <Data name="Category">
          <value>hospital</value>
        </Data>
        <Data name="Address">
          <value>Mahajan Hospital, Wadala - Pathardi Rd, opposite Metro Zone, Samarth Nagar, Dnyaneshwar Nagar, Indira Nagar, Nashik, Maharashtra 422009, India</value>
        </Data>
        <Data name="Latitude">
          <value>19.9518521</value>
        </Data>
        <Data name="Longitude">
          <value>73.7747403</value>
        </Data>
        <Data name="Rating">
          <value>4.9</value>
        </Data>
        <Data name="Place_ID">
          <value>ChIJsQJitiTr3TsRReAI9SJ5Vq4</value>
        </Data>
        <Data name="Distance_m">
          <value>1218.0</value>
        </Data>
      </ExtendedData>
      <Point>
        <coordinates>
          73.7747403,19.9518521,0
        </coordinates>
      </Point>
    </Placemark>
    <Placemark>
      <name>Saptashrungi Maternity/Nursing Home</name>
      <description><![CDATA[Description: <br>address: <br>phoneNumber: <br>Coordinates: 73.762884,19.955421<br>Category: hospital<br>Address: XQ47+556, Dnyaneshwar Nagar, Pathardi Phata, Nashik, Maharashtra 422009, India<br>Latitude: 19.955421<br>Longitude: 73.762884<br>Rating: 5<br>Place_ID: ChIJ7_sLVkzr3TsRXxayf7YR4DA<br>Distance_m: 1465]]></description>
      <styleUrl>#icon-1899-0288D1</styleUrl>
      <ExtendedData>
        <Data name="Description">
          <value/>
        </Data>
        <Data name="address">
          <value/>
        </Data>
        <Data name="phoneNumber">
          <value/>
        </Data>
        <Data name="Coordinates">
          <value>73.762884,19.955421</value>
        </Data>
        <Data name="Category">
          <value>hospital</value>
        </Data>
        <Data name="Address">
          <value>XQ47+556, Dnyaneshwar Nagar, Pathardi Phata, Nashik, Maharashtra 422009, India</value>
        </Data>
        <Data name="Latitude">
          <value>19.955421</value>
        </Data>
        <Data name="Longitude">
          <value>73.762884</value>
        </Data>
        <Data name="Rating">
          <value>5.0</value>
        </Data>
        <Data name="Place_ID">
          <value>ChIJ7_sLVkzr3TsRXxayf7YR4DA</value>
        </Data>
        <Data name="Distance_m">
          <value>1465.0</value>
        </Data>
      </ExtendedData>
      <Point>
        <coordinates>
          73.762884,19.955421,0
        </coordinates>
      </Point>
    </Placemark>
    <Placemark>
      <name><![CDATA[Dr Pawar's Mother & Baby Care Nursing Home | Best Maternity Hospital in Nashik]]></name>
      <description><![CDATA[Description: <br>address: <br>phoneNumber: <br>Coordinates: 73.769883,19.9497527<br>Category: hospital<br>Address: S.No- 326, 1/1/2, GD Sawant College Rd, near Shell Petrol Pump, Wasan Nagar, Pathardi Phata, Nashik, Maharashtra 422010, India<br>Latitude: 19.9497527<br>Longitude: 73.769883<br>Rating: 4.8<br>Place_ID: ChIJuQig5h2V3TsRJ47seMHZgik<br>Distance_m: 1886]]></description>
      <styleUrl>#icon-1899-0288D1</styleUrl>
      <ExtendedData>
        <Data name="Description">
          <value/>
        </Data>
        <Data name="address">
          <value/>
        </Data>
        <Data name="phoneNumber">
          <value/>
        </Data>
        <Data name="Coordinates">
          <value>73.769883,19.9497527</value>
        </Data>
        <Data name="Category">
          <value>hospital</value>
        </Data>
        <Data name="Address">
          <value>S.No- 326, 1/1/2, GD Sawant College Rd, near Shell Petrol Pump, Wasan Nagar, Pathardi Phata, Nashik, Maharashtra 422010, India</value>
        </Data>
        <Data name="Latitude">
          <value>19.9497527</value>
        </Data>
        <Data name="Longitude">
          <value>73.769883</value>
        </Data>
        <Data name="Rating">
          <value>4.8</value>
        </Data>
        <Data name="Place_ID">
          <value>ChIJuQig5h2V3TsRJ47seMHZgik</value>
        </Data>
        <Data name="Distance_m">
          <value>1886.0</value>
        </Data>
      </ExtendedData>
      <Point>
        <coordinates>
          73.769883,19.9497527,0
        </coordinates>
      </Point>
    </Placemark>
    <Placemark>
      <name><![CDATA[Dr Bangar's Sparsh Women's Hospital]]></name>
      <description><![CDATA[Description: <br>address: <br>phoneNumber: <br>Coordinates: 73.7644927,19.9628602<br>Category: medical_clinic<br>Address: Ground Floor, Plot No. ASG 44/45 sahyadri nagar, Ashwin Nagar, Nashik, Maharashtra 422009, India<br>Latitude: 19.9628602<br>Longitude: 73.7644927<br>Rating: 4.9<br>Place_ID: ChIJK4BwaAbr3TsRryN8JF_DJn0<br>Distance_m: 1046]]></description>
      <styleUrl>#icon-1899-0288D1</styleUrl>
      <ExtendedData>
        <Data name="Description">
          <value/>
        </Data>
        <Data name="address">
          <value/>
        </Data>
        <Data name="phoneNumber">
          <value/>
        </Data>
        <Data name="Coordinates">
          <value>73.7644927,19.9628602</value>
        </Data>
        <Data name="Category">
          <value>medical_clinic</value>
        </Data>
        <Data name="Address">
          <value>Ground Floor, Plot No. ASG 44/45 sahyadri nagar, Ashwin Nagar, Nashik, Maharashtra 422009, India</value>
        </Data>
        <Data name="Latitude">
          <value>19.9628602</value>
        </Data>
        <Data name="Longitude">
          <value>73.7644927</value>
        </Data>
        <Data name="Rating">
          <value>4.9</value>
        </Data>
        <Data name="Place_ID">
          <value>ChIJK4BwaAbr3TsRryN8JF_DJn0</value>
        </Data>
        <Data name="Distance_m">
          <value>1046.0</value>
        </Data>
      </ExtendedData>
      <Point>
        <coordinates>
          73.7644927,19.9628602,0
        </coordinates>
      </Point>
    </Placemark>
    <Placemark>
      <name><![CDATA[Anand Rugnalaya Maternity & Nursing home]]></name>
      <description><![CDATA[Description: <br>address: <br>phoneNumber: <br>Coordinates: 73.8473234,20.018902<br>Category: hospital<br>Address: Behind Ganesh Market Konark Nagar, Adgaon Shiwar, Jatra Hotel Area, Agra - Mumbai Hwy, Konark Nagar, Nashik, Maharashtra 422003, India<br>Latitude: 20.018902<br>Longitude: 73.8473234<br>Rating: 4.9<br>Place_ID: ChIJbwb7N8rB3TsRK7WN3RrPSII<br>Distance_m: 2351]]></description>
      <styleUrl>#icon-1899-0288D1</styleUrl>
      <ExtendedData>
        <Data name="Description">
          <value/>
        </Data>
        <Data name="address">
          <value/>
        </Data>
        <Data name="phoneNumber">
          <value/>
        </Data>
        <Data name="Coordinates">
          <value>73.8473234,20.018902</value>
        </Data>
        <Data name="Category">
          <value>hospital</value>
        </Data>
        <Data name="Address">
          <value>Behind Ganesh Market Konark Nagar, Adgaon Shiwar, Jatra Hotel Area, Agra - Mumbai Hwy, Konark Nagar, Nashik, Maharashtra 422003, India</value>
        </Data>
        <Data name="Latitude">
          <value>20.018902</value>
        </Data>
        <Data name="Longitude">
          <value>73.8473234</value>
        </Data>
        <Data name="Rating">
          <value>4.9</value>
        </Data>
        <Data name="Place_ID">
          <value>ChIJbwb7N8rB3TsRK7WN3RrPSII</value>
        </Data>
        <Data name="Distance_m">
          <value>2351.0</value>
        </Data>
      </ExtendedData>
      <Point>
        <coordinates>
          73.8473234,20.018902,0
        </coordinates>
      </Point>
    </Placemark>
    <Placemark>
      <name><![CDATA[Navjyot Maternity & Nursing Home]]></name>
      <description><![CDATA[Description: <br>address: <br>phoneNumber: <br>Coordinates: 73.7217837,19.9852519<br>Category: hospital<br>Address: Navjyot Nursing Home, XPPC+3JH Annapurna Hotel, Besides, Trambakeshwar Rd, near Papaya Signal, Ashoknagar, Satpur Colony, NashikNear, Nashik, Maharashtra 422007, India<br>Latitude: 19.9852519<br>Longitude: 73.7217837<br>Rating: 5<br>Place_ID: ChIJ7T93DtXt3TsRC95Sk05234Y<br>Distance_m: 1974]]></description>
      <styleUrl>#icon-1899-0288D1</styleUrl>
      <ExtendedData>
        <Data name="Description">
          <value/>
        </Data>
        <Data name="address">
          <value/>
        </Data>
        <Data name="phoneNumber">
          <value/>
        </Data>
        <Data name="Coordinates">
          <value>73.7217837,19.9852519</value>
        </Data>
        <Data name="Category">
          <value>hospital</value>
        </Data>
        <Data name="Address">
          <value>Navjyot Nursing Home, XPPC+3JH Annapurna Hotel, Besides, Trambakeshwar Rd, near Papaya Signal, Ashoknagar, Satpur Colony, NashikNear, Nashik, Maharashtra 422007, India</value>
        </Data>
        <Data name="Latitude">
          <value>19.9852519</value>
        </Data>
        <Data name="Longitude">
          <value>73.7217837</value>
        </Data>
        <Data name="Rating">
          <value>5.0</value>
        </Data>
        <Data name="Place_ID">
          <value>ChIJ7T93DtXt3TsRC95Sk05234Y</value>
        </Data>
        <Data name="Distance_m">
          <value>1974.0</value>
        </Data>
      </ExtendedData>
      <Point>
        <coordinates>
          73.7217837,19.9852519,0
        </coordinates>
      </Point>
    </Placemark>
    <Placemark>
      <name>Aastha Maternity Hospital</name>
      <description><![CDATA[Description: <br>address: <br>phoneNumber: <br>Coordinates: 73.7482103,19.9823119<br>Category: hospital<br>Address: Flat No.1, near Dakshinmukhi Maruti Mandir, Venu Nagar, Chanakya Nagar, Khutawad Nagar, Nashik, Maharashtra 422008, India<br>Latitude: 19.9823119<br>Longitude: 73.7482103<br>Rating: 5<br>Place_ID: ChIJFfzqfZTr3TsR4CaW6cMO314<br>Distance_m: 1100]]></description>
      <styleUrl>#icon-1899-0288D1</styleUrl>
      <ExtendedData>
        <Data name="Description">
          <value/>
        </Data>
        <Data name="address">
          <value/>
        </Data>
        <Data name="phoneNumber">
          <value/>
        </Data>
        <Data name="Coordinates">
          <value>73.7482103,19.9823119</value>
        </Data>
        <Data name="Category">
          <value>hospital</value>
        </Data>
        <Data name="Address">
          <value>Flat No.1, near Dakshinmukhi Maruti Mandir, Venu Nagar, Chanakya Nagar, Khutawad Nagar, Nashik, Maharashtra 422008, India</value>
        </Data>
        <Data name="Latitude">
          <value>19.9823119</value>
        </Data>
        <Data name="Longitude">
          <value>73.7482103</value>
        </Data>
        <Data name="Rating">
          <value>5.0</value>
        </Data>
        <Data name="Place_ID">
          <value>ChIJFfzqfZTr3TsR4CaW6cMO314</value>
        </Data>
        <Data name="Distance_m">
          <value>1100.0</value>
        </Data>
      </ExtendedData>
      <Point>
        <coordinates>
          73.7482103,19.9823119,0
        </coordinates>
      </Point>
    </Placemark>
    <Placemark>
      <name>Jankalyan Hospital</name>
      <description><![CDATA[Description: <br>address: <br>phoneNumber: <br>Coordinates: 73.7810827,19.9609377<br>Category: hospital<br>Address: Unnamed Road, Shiv Colony, Pandav Nagari, Sharda Vihar, Nashik, Maharashtra 422102, India<br>Latitude: 19.9609377<br>Longitude: 73.7810827<br>Rating: 4.5<br>Place_ID: ChIJ3T53-zHr3TsRjBWdJtTnFCo<br>Distance_m: 1265]]></description>
      <styleUrl>#icon-1899-0288D1</styleUrl>
      <ExtendedData>
        <Data name="Description">
          <value/>
        </Data>
        <Data name="address">
          <value/>
        </Data>
        <Data name="phoneNumber">
          <value/>
        </Data>
        <Data name="Coordinates">
          <value>73.7810827,19.9609377</value>
        </Data>
        <Data name="Category">
          <value>hospital</value>
        </Data>
        <Data name="Address">
          <value>Unnamed Road, Shiv Colony, Pandav Nagari, Sharda Vihar, Nashik, Maharashtra 422102, India</value>
        </Data>
        <Data name="Latitude">
          <value>19.9609377</value>
        </Data>
        <Data name="Longitude">
          <value>73.7810827</value>
        </Data>
        <Data name="Rating">
          <value>4.5</value>
        </Data>
        <Data name="Place_ID">
          <value>ChIJ3T53-zHr3TsRjBWdJtTnFCo</value>
        </Data>
        <Data name="Distance_m">
          <value>1265.0</value>
        </Data>
      </ExtendedData>
      <Point>
        <coordinates>
          73.7810827,19.9609377,0
        </coordinates>
      </Point>
    </Placemark>
    <Placemark>
      <name>Dr. Darade Hospital/ Maternity</name>
      <description><![CDATA[Description: <br>address: <br>phoneNumber: <br>Coordinates: 73.7553854,19.969211<br>Category: hospital<br>Address: Plot No 5&6, Shravan Sector, Uttamnagar, Cidco College, Cidco, Nashik, Maharashtra 422008, India<br>Latitude: 19.969211<br>Longitude: 73.7553854<br>Rating: 3.8<br>Place_ID: ChIJTfWidVzr3TsRKSxHSXxVSFY<br>Distance_m: 373]]></description>
      <styleUrl>#icon-1899-0288D1</styleUrl>
      <ExtendedData>
        <Data name="Description">
          <value/>
        </Data>
        <Data name="address">
          <value/>
        </Data>
        <Data name="phoneNumber">
          <value/>
        </Data>
        <Data name="Coordinates">
          <value>73.7553854,19.969211</value>
        </Data>
        <Data name="Category">
          <value>hospital</value>
        </Data>
        <Data name="Address">
          <value><![CDATA[Plot No 5&6, Shravan Sector, Uttamnagar, Cidco College, Cidco, Nashik, Maharashtra 422008, India]]></value>
        </Data>
        <Data name="Latitude">
          <value>19.969211</value>
        </Data>
        <Data name="Longitude">
          <value>73.7553854</value>
        </Data>
        <Data name="Rating">
          <value>3.8</value>
        </Data>
        <Data name="Place_ID">
          <value>ChIJTfWidVzr3TsRKSxHSXxVSFY</value>
        </Data>
        <Data name="Distance_m">
          <value>373.0</value>
        </Data>
      </ExtendedData>
      <Point>
        <coordinates>
          73.7553854,19.969211,0
        </coordinates>
      </Point>
    </Placemark>
    <Placemark>
      <name>Shri Akhandajyoti Hospital | Dr Ashwin More | Gynecologist in Nashik</name>
      <description><![CDATA[Description: <br>address: <br>phoneNumber: <br>Coordinates: 73.7781752,19.9783639<br>Category: doctor<br>Address: Roongta Bella Vista, Bhujbal Farm road Mumbai, Agra - Mumbai Hwy, Sadguru Nagar, Nashik, Maharashtra 422009, India<br>Latitude: 19.9783639<br>Longitude: 73.7781752<br>Rating: 4.8<br>Place_ID: ChIJ5SuQPz7r3TsRvJMfSx38oj4<br>Distance_m: 768]]></description>
      <styleUrl>#icon-1899-0288D1</styleUrl>
      <ExtendedData>
        <Data name="Description">
          <value/>
        </Data>
        <Data name="address">
          <value/>
        </Data>
        <Data name="phoneNumber">
          <value/>
        </Data>
        <Data name="Coordinates">
          <value>73.7781752,19.9783639</value>
        </Data>
        <Data name="Category">
          <value>doctor</value>
        </Data>
        <Data name="Address">
          <value>Roongta Bella Vista, Bhujbal Farm road Mumbai, Agra - Mumbai Hwy, Sadguru Nagar, Nashik, Maharashtra 422009, India</value>
        </Data>
        <Data name="Latitude">
          <value>19.9783639</value>
        </Data>
        <Data name="Longitude">
          <value>73.7781752</value>
        </Data>
        <Data name="Rating">
          <value>4.8</value>
        </Data>
        <Data name="Place_ID">
          <value>ChIJ5SuQPz7r3TsRvJMfSx38oj4</value>
        </Data>
        <Data name="Distance_m">
          <value>768.0</value>
        </Data>
      </ExtendedData>
      <Point>
        <coordinates>
          73.7781752,19.9783639,0
        </coordinates>
      </Point>
    </Placemark>
    <Placemark>
      <name>Rainbow HOSPITAL</name>
      <description><![CDATA[Description: <br>address: <br>phoneNumber: <br>Coordinates: 73.7800746,19.99162<br>Category: hospital<br>Address: Mumbai Naka, Matoshree Nagar, Nashik, Maharashtra 422002, India<br>Latitude: 19.99162<br>Longitude: 73.7800746<br>Rating: 3.8<br>Place_ID: ChIJI2MPVQ7r3TsRN06AaPysWLw<br>Distance_m: 643]]></description>
      <styleUrl>#icon-1899-0288D1</styleUrl>
      <ExtendedData>
        <Data name="Description">
          <value/>
        </Data>
        <Data name="address">
          <value/>
        </Data>
        <Data name="phoneNumber">
          <value/>
        </Data>
        <Data name="Coordinates">
          <value>73.7800746,19.99162</value>
        </Data>
        <Data name="Category">
          <value>hospital</value>
        </Data>
        <Data name="Address">
          <value>Mumbai Naka, Matoshree Nagar, Nashik, Maharashtra 422002, India</value>
        </Data>
        <Data name="Latitude">
          <value>19.99162</value>
        </Data>
        <Data name="Longitude">
          <value>73.7800746</value>
        </Data>
        <Data name="Rating">
          <value>3.8</value>
        </Data>
        <Data name="Place_ID">
          <value>ChIJI2MPVQ7r3TsRN06AaPysWLw</value>
        </Data>
        <Data name="Distance_m">
          <value>643.0</value>
        </Data>
      </ExtendedData>
      <Point>
        <coordinates>
          73.7800746,19.99162,0
        </coordinates>
      </Point>
    </Placemark>
    <Placemark>
      <name>Mediliv Hospital - Dr. Suchita Deshmukh - Gynecologist in Nashik | Infertility specialist in Nashik</name>
      <description><![CDATA[Description: <br>address: <br>phoneNumber: <br>Coordinates: 73.7998763,19.989862<br>Category: doctor<br>Address: 5th Floor, Shreeji Bizz Word Complex, above Kotak Mahindra Bank, near Kathe Galli, Signal, Dwarka, Nashik, Maharashtra 422011, India<br>Latitude: 19.989862<br>Longitude: 73.7998763<br>Rating: 4.4<br>Place_ID: ChIJh9oQlTTr3TsRLYSy5f3mYUA<br>Distance_m: 538]]></description>
      <styleUrl>#icon-1899-0288D1</styleUrl>
      <ExtendedData>
        <Data name="Description">
          <value/>
        </Data>
        <Data name="address">
          <value/>
        </Data>
        <Data name="phoneNumber">
          <value/>
        </Data>
        <Data name="Coordinates">
          <value>73.7998763,19.989862</value>
        </Data>
        <Data name="Category">
          <value>doctor</value>
        </Data>
        <Data name="Address">
          <value>5th Floor, Shreeji Bizz Word Complex, above Kotak Mahindra Bank, near Kathe Galli, Signal, Dwarka, Nashik, Maharashtra 422011, India</value>
        </Data>
        <Data name="Latitude">
          <value>19.989862</value>
        </Data>
        <Data name="Longitude">
          <value>73.7998763</value>
        </Data>
        <Data name="Rating">
          <value>4.4</value>
        </Data>
        <Data name="Place_ID">
          <value>ChIJh9oQlTTr3TsRLYSy5f3mYUA</value>
        </Data>
        <Data name="Distance_m">
          <value>538.0</value>
        </Data>
      </ExtendedData>
      <Point>
        <coordinates>
          73.7998763,19.989862,0
        </coordinates>
      </Point>
    </Placemark>
    <Placemark>
      <name><![CDATA[CITY HOSPITAL & MEDICAL RESEARCH CENTRE]]></name>
      <description><![CDATA[Description: <br>address: <br>phoneNumber: <br>Coordinates: 73.7940411,19.9907426<br>Category: hospital<br>Address: Wadala Rd, opp. Ayesha Masjid, Kazi Nagar, General Vaidya Nagar, Nashik, Maharashtra 422011, India<br>Latitude: 19.9907426<br>Longitude: 73.7940411<br>Rating: 4.4<br>Place_ID: ChIJ9zkNsALr3TsRecucFmPl8Og<br>Distance_m: 2374]]></description>
      <styleUrl>#icon-1899-0288D1</styleUrl>
      <ExtendedData>
        <Data name="Description">
          <value/>
        </Data>
        <Data name="address">
          <value/>
        </Data>
        <Data name="phoneNumber">
          <value/>
        </Data>
        <Data name="Coordinates">
          <value>73.7940411,19.9907426</value>
        </Data>
        <Data name="Category">
          <value>hospital</value>
        </Data>
        <Data name="Address">
          <value>Wadala Rd, opp. Ayesha Masjid, Kazi Nagar, General Vaidya Nagar, Nashik, Maharashtra 422011, India</value>
        </Data>
        <Data name="Latitude">
          <value>19.9907426</value>
        </Data>
        <Data name="Longitude">
          <value>73.7940411</value>
        </Data>
        <Data name="Rating">
          <value>4.4</value>
        </Data>
        <Data name="Place_ID">
          <value>ChIJ9zkNsALr3TsRecucFmPl8Og</value>
        </Data>
        <Data name="Distance_m">
          <value>2374.0</value>
        </Data>
      </ExtendedData>
      <Point>
        <coordinates>
          73.7940411,19.9907426,0
        </coordinates>
      </Point>
    </Placemark>
    <Placemark>
      <name>Jantara Hospital</name>
      <description><![CDATA[Description: <br>address: <br>phoneNumber: <br>Coordinates: 73.7764307,20.0016048<br>Category: hospital<br>Address: Lane No. 6, Sharanpur Rd, Old Pandit Colony, Pandit Colony, Nashik, Maharashtra 422002, India<br>Latitude: 20.0016048<br>Longitude: 73.7764307<br>Rating: 5<br>Place_ID: ChIJS7yUqKDr3TsRFw-EYLlU76Q<br>Distance_m: 193]]></description>
      <styleUrl>#icon-1899-0288D1</styleUrl>
      <ExtendedData>
        <Data name="Description">
          <value/>
        </Data>
        <Data name="address">
          <value/>
        </Data>
        <Data name="phoneNumber">
          <value/>
        </Data>
        <Data name="Coordinates">
          <value>73.7764307,20.0016048</value>
        </Data>
        <Data name="Category">
          <value>hospital</value>
        </Data>
        <Data name="Address">
          <value>Lane No. 6, Sharanpur Rd, Old Pandit Colony, Pandit Colony, Nashik, Maharashtra 422002, India</value>
        </Data>
        <Data name="Latitude">
          <value>20.0016048</value>
        </Data>
        <Data name="Longitude">
          <value>73.7764307</value>
        </Data>
        <Data name="Rating">
          <value>5.0</value>
        </Data>
        <Data name="Place_ID">
          <value>ChIJS7yUqKDr3TsRFw-EYLlU76Q</value>
        </Data>
        <Data name="Distance_m">
          <value>193.0</value>
        </Data>
      </ExtendedData>
      <Point>
        <coordinates>
          73.7764307,20.0016048,0
        </coordinates>
      </Point>
    </Placemark>
    <Placemark>
      <name>Nivedita Hospital and Nivedita IVF centre</name>
      <description><![CDATA[Description: <br>address: <br>phoneNumber: <br>Coordinates: 73.7647189,20.0039928<br>Category: hospital<br>Address: Plot No.12, Anshumali Tower, HPT, College Rd, Godavari Colony, Ramdas Colony, Nashik, Maharashtra 422005, India<br>Latitude: 20.0039928<br>Longitude: 73.7647189<br>Rating: 4.4<br>Place_ID: ChIJS-fyOgHr3TsR4tk7ND_hDig<br>Distance_m: 286]]></description>
      <styleUrl>#icon-1899-0288D1</styleUrl>
      <ExtendedData>
        <Data name="Description">
          <value/>
        </Data>
        <Data name="address">
          <value/>
        </Data>
        <Data name="phoneNumber">
          <value/>
        </Data>
        <Data name="Coordinates">
          <value>73.7647189,20.0039928</value>
        </Data>
        <Data name="Category">
          <value>hospital</value>
        </Data>
        <Data name="Address">
          <value>Plot No.12, Anshumali Tower, HPT, College Rd, Godavari Colony, Ramdas Colony, Nashik, Maharashtra 422005, India</value>
        </Data>
        <Data name="Latitude">
          <value>20.0039928</value>
        </Data>
        <Data name="Longitude">
          <value>73.7647189</value>
        </Data>
        <Data name="Rating">
          <value>4.4</value>
        </Data>
        <Data name="Place_ID">
          <value>ChIJS-fyOgHr3TsR4tk7ND_hDig</value>
        </Data>
        <Data name="Distance_m">
          <value>286.0</value>
        </Data>
      </ExtendedData>
      <Point>
        <coordinates>
          73.7647189,20.0039928,0
        </coordinates>
      </Point>
    </Placemark>
    <Placemark>
      <name>NMC Hospital (Jijamata Hospital)</name>
      <description><![CDATA[Description: <br>address: <br>phoneNumber: <br>Coordinates: 73.7895817,20.0025998<br>Category: hospital<br>Address: Old Mahanagar Palika, Main Rd, Shalimar, Nashik, Maharashtra 422001, India<br>Latitude: 20.0025998<br>Longitude: 73.7895817<br>Rating: 4.4<br>Place_ID: ChIJXxJ3GKrr3TsR5rO4Zac9XXw<br>Distance_m: 1737]]></description>
      <styleUrl>#icon-1899-0288D1</styleUrl>
      <ExtendedData>
        <Data name="Description">
          <value/>
        </Data>
        <Data name="address">
          <value/>
        </Data>
        <Data name="phoneNumber">
          <value/>
        </Data>
        <Data name="Coordinates">
          <value>73.7895817,20.0025998</value>
        </Data>
        <Data name="Category">
          <value>hospital</value>
        </Data>
        <Data name="Address">
          <value>Old Mahanagar Palika, Main Rd, Shalimar, Nashik, Maharashtra 422001, India</value>
        </Data>
        <Data name="Latitude">
          <value>20.0025998</value>
        </Data>
        <Data name="Longitude">
          <value>73.7895817</value>
        </Data>
        <Data name="Rating">
          <value>4.4</value>
        </Data>
        <Data name="Place_ID">
          <value>ChIJXxJ3GKrr3TsR5rO4Zac9XXw</value>
        </Data>
        <Data name="Distance_m">
          <value>1737.0</value>
        </Data>
      </ExtendedData>
      <Point>
        <coordinates>
          73.7895817,20.0025998,0
        </coordinates>
      </Point>
    </Placemark>
    <Placemark>
      <name>Jijamata Hospital</name>
      <description><![CDATA[Description: <br>address: <br>phoneNumber: <br>Coordinates: 73.789497,20.0025742<br>Category: shopping_mall<br>Address: Shop No8, Annapurna Sankul, 1/6, Saraswati Ln, Dahipul, Naikwadi Pura, Panchavati, Nashik, Maharashtra 422001, India<br>Latitude: 20.0025742<br>Longitude: 73.789497<br>Rating: 3.8<br>Place_ID: ChIJDXGOGKrr3TsRx4cV1EncwZo<br>Distance_m: 810]]></description>
      <styleUrl>#icon-1899-0288D1</styleUrl>
      <ExtendedData>
        <Data name="Description">
          <value/>
        </Data>
        <Data name="address">
          <value/>
        </Data>
        <Data name="phoneNumber">
          <value/>
        </Data>
        <Data name="Coordinates">
          <value>73.789497,20.0025742</value>
        </Data>
        <Data name="Category">
          <value>shopping_mall</value>
        </Data>
        <Data name="Address">
          <value>Shop No8, Annapurna Sankul, 1/6, Saraswati Ln, Dahipul, Naikwadi Pura, Panchavati, Nashik, Maharashtra 422001, India</value>
        </Data>
        <Data name="Latitude">
          <value>20.0025742</value>
        </Data>
        <Data name="Longitude">
          <value>73.789497</value>
        </Data>
        <Data name="Rating">
          <value>3.8</value>
        </Data>
        <Data name="Place_ID">
          <value>ChIJDXGOGKrr3TsRx4cV1EncwZo</value>
        </Data>
        <Data name="Distance_m">
          <value>810.0</value>
        </Data>
      </ExtendedData>
      <Point>
        <coordinates>
          73.789497,20.0025742,0
        </coordinates>
      </Point>
    </Placemark>
    <Placemark>
      <name>Yashwant Hospital</name>
      <description><![CDATA[Description: <br>address: <br>phoneNumber: <br>Coordinates: 73.7937361,20.0121561<br>Category: hospital<br>Address: 1st Floor, Bhakti Sankul Near, Peth Phata, Signal, Panchavati, Nashik, Maharashtra 422003, India<br>Latitude: 20.0121561<br>Longitude: 73.7937361<br>Rating: 4.5<br>Place_ID: ChIJdzq2Ra3r3TsRJDeKjdpysT4<br>Distance_m: 1985]]></description>
      <styleUrl>#icon-1899-0288D1</styleUrl>
      <ExtendedData>
        <Data name="Description">
          <value/>
        </Data>
        <Data name="address">
          <value/>
        </Data>
        <Data name="phoneNumber">
          <value/>
        </Data>
        <Data name="Coordinates">
          <value>73.7937361,20.0121561</value>
        </Data>
        <Data name="Category">
          <value>hospital</value>
        </Data>
        <Data name="Address">
          <value>1st Floor, Bhakti Sankul Near, Peth Phata, Signal, Panchavati, Nashik, Maharashtra 422003, India</value>
        </Data>
        <Data name="Latitude">
          <value>20.0121561</value>
        </Data>
        <Data name="Longitude">
          <value>73.7937361</value>
        </Data>
        <Data name="Rating">
          <value>4.5</value>
        </Data>
        <Data name="Place_ID">
          <value>ChIJdzq2Ra3r3TsRJDeKjdpysT4</value>
        </Data>
        <Data name="Distance_m">
          <value>1985.0</value>
        </Data>
      </ExtendedData>
      <Point>
        <coordinates>
          73.7937361,20.0121561,0
        </coordinates>
      </Point>
    </Placemark>
    <Placemark>
      <name>New Life Hospital</name>
      <description><![CDATA[Description: <br>address: <br>phoneNumber: <br>Coordinates: 73.7885001,20.017913<br>Category: hospital<br>Address: Ploat No. 3, New Life Hospital, Makhmalabad Rd, near Dream Castle Signal, Panchavati, Nashik, Maharashtra 422003, India<br>Latitude: 20.017913<br>Longitude: 73.7885001<br>Rating: 5<br>Place_ID: ChIJDfE0l9rr3TsRjM1OLfMwvx8<br>Distance_m: 2374]]></description>
      <styleUrl>#icon-1899-0288D1</styleUrl>
      <ExtendedData>
        <Data name="Description">
          <value/>
        </Data>
        <Data name="address">
          <value/>
        </Data>
        <Data name="phoneNumber">
          <value/>
        </Data>
        <Data name="Coordinates">
          <value>73.7885001,20.017913</value>
        </Data>
        <Data name="Category">
          <value>hospital</value>
        </Data>
        <Data name="Address">
          <value>Ploat No. 3, New Life Hospital, Makhmalabad Rd, near Dream Castle Signal, Panchavati, Nashik, Maharashtra 422003, India</value>
        </Data>
        <Data name="Latitude">
          <value>20.017913</value>
        </Data>
        <Data name="Longitude">
          <value>73.7885001</value>
        </Data>
        <Data name="Rating">
          <value>5.0</value>
        </Data>
        <Data name="Place_ID">
          <value>ChIJDfE0l9rr3TsRjM1OLfMwvx8</value>
        </Data>
        <Data name="Distance_m">
          <value>2374.0</value>
        </Data>
      </ExtendedData>
      <Point>
        <coordinates>
          73.7885001,20.017913,0
        </coordinates>
      </Point>
    </Placemark>
    <Placemark>
      <name>Rajani Hospital</name>
      <description><![CDATA[Description: <br>address: <br>phoneNumber: <br>Coordinates: 73.8027894,20.0092362<br>Category: hospital<br>Address: 2nd Floor, Hari Krushna Plaza Building Katya Maruti Chaufuli, Hirawadi Rd, opp. Petrol Pump, Abhang Nagar, Panchavati, Nashik, Maharashtra 422003, India<br>Latitude: 20.0092362<br>Longitude: 73.8027894<br>Rating: 4.8<br>Place_ID: ChIJfeKFZ9fr3TsRZEUhts7dlUE<br>Distance_m: 1138]]></description>
      <styleUrl>#icon-1899-0288D1</styleUrl>
      <ExtendedData>
        <Data name="Description">
          <value/>
        </Data>
        <Data name="address">
          <value/>
        </Data>
        <Data name="phoneNumber">
          <value/>
        </Data>
        <Data name="Coordinates">
          <value>73.8027894,20.0092362</value>
        </Data>
        <Data name="Category">
          <value>hospital</value>
        </Data>
        <Data name="Address">
          <value>2nd Floor, Hari Krushna Plaza Building Katya Maruti Chaufuli, Hirawadi Rd, opp. Petrol Pump, Abhang Nagar, Panchavati, Nashik, Maharashtra 422003, India</value>
        </Data>
        <Data name="Latitude">
          <value>20.0092362</value>
        </Data>
        <Data name="Longitude">
          <value>73.8027894</value>
        </Data>
        <Data name="Rating">
          <value>4.8</value>
        </Data>
        <Data name="Place_ID">
          <value>ChIJfeKFZ9fr3TsRZEUhts7dlUE</value>
        </Data>
        <Data name="Distance_m">
          <value>1138.0</value>
        </Data>
      </ExtendedData>
      <Point>
        <coordinates>
          73.8027894,20.0092362,0
        </coordinates>
      </Point>
    </Placemark>
    <Placemark>
      <name>Swa. Vinayak Damodar Savarkar Gov Hospital</name>
      <description><![CDATA[Description: <br>address: <br>phoneNumber: <br>Coordinates: 73.7163319,20.0177579<br>Category: hospital<br>Address: 2P98+29, Shivaji Nagar, Satpur Colony, Nashik, Maharashtra 422012, India<br>Latitude: 20.0177579<br>Longitude: 73.7163319<br>Rating: <br>Place_ID: ChIJFzpipwnt3TsRE93LtUUd1UY<br>Distance_m: 1469]]></description>
      <styleUrl>#icon-1899-0288D1</styleUrl>
      <ExtendedData>
        <Data name="Description">
          <value/>
        </Data>
        <Data name="address">
          <value/>
        </Data>
        <Data name="phoneNumber">
          <value/>
        </Data>
        <Data name="Coordinates">
          <value>73.7163319,20.0177579</value>
        </Data>
        <Data name="Category">
          <value>hospital</value>
        </Data>
        <Data name="Address">
          <value>2P98+29, Shivaji Nagar, Satpur Colony, Nashik, Maharashtra 422012, India</value>
        </Data>
        <Data name="Latitude">
          <value>20.0177579</value>
        </Data>
        <Data name="Longitude">
          <value>73.7163319</value>
        </Data>
        <Data name="Rating">
          <value/>
        </Data>
        <Data name="Place_ID">
          <value>ChIJFzpipwnt3TsRE93LtUUd1UY</value>
        </Data>
        <Data name="Distance_m">
          <value>1469.0</value>
        </Data>
      </ExtendedData>
      <Point>
        <coordinates>
          73.7163319,20.0177579,0
        </coordinates>
      </Point>
    </Placemark>
    <Placemark>
      <name>Bhosale Hospital</name>
      <description><![CDATA[Description: <br>address: <br>phoneNumber: <br>Coordinates: 73.7480868,20.012429<br>Category: hospital<br>Address: Bus stop, Gangapur Rd, Anandvalli, Nashik, Maharashtra 422013, India<br>Latitude: 20.012429<br>Longitude: 73.7480868<br>Rating: 4<br>Place_ID: ChIJ51pB14nr3TsRu8ad6dlcJo0<br>Distance_m: 222]]></description>
      <styleUrl>#icon-1899-0288D1</styleUrl>
      <ExtendedData>
        <Data name="Description">
          <value/>
        </Data>
        <Data name="address">
          <value/>
        </Data>
        <Data name="phoneNumber">
          <value/>
        </Data>
        <Data name="Coordinates">
          <value>73.7480868,20.012429</value>
        </Data>
        <Data name="Category">
          <value>hospital</value>
        </Data>
        <Data name="Address">
          <value>Bus stop, Gangapur Rd, Anandvalli, Nashik, Maharashtra 422013, India</value>
        </Data>
        <Data name="Latitude">
          <value>20.012429</value>
        </Data>
        <Data name="Longitude">
          <value>73.7480868</value>
        </Data>
        <Data name="Rating">
          <value>4.0</value>
        </Data>
        <Data name="Place_ID">
          <value>ChIJ51pB14nr3TsRu8ad6dlcJo0</value>
        </Data>
        <Data name="Distance_m">
          <value>222.0</value>
        </Data>
      </ExtendedData>
      <Point>
        <coordinates>
          73.7480868,20.012429,0
        </coordinates>
      </Point>
    </Placemark>
    <Placemark>
      <name>Dr.Gajare Hospital</name>
      <description><![CDATA[Description: <br>address: <br>phoneNumber: <br>Coordinates: 73.7115319,20.0065719<br>Category: hospital<br>Address: Near Shivaji Nagar Bus Stop, Shivaji Nagar, Satpur Colony, Nashik, Maharashtra 422012, India<br>Latitude: 20.0065719<br>Longitude: 73.7115319<br>Rating: 4.2<br>Place_ID: ChIJyfdm7k_s3TsRE7XzcEvoB3M<br>Distance_m: 2146]]></description>
      <styleUrl>#icon-1899-0288D1</styleUrl>
      <ExtendedData>
        <Data name="Description">
          <value/>
        </Data>
        <Data name="address">
          <value/>
        </Data>
        <Data name="phoneNumber">
          <value/>
        </Data>
        <Data name="Coordinates">
          <value>73.7115319,20.0065719</value>
        </Data>
        <Data name="Category">
          <value>hospital</value>
        </Data>
        <Data name="Address">
          <value>Near Shivaji Nagar Bus Stop, Shivaji Nagar, Satpur Colony, Nashik, Maharashtra 422012, India</value>
        </Data>
        <Data name="Latitude">
          <value>20.0065719</value>
        </Data>
        <Data name="Longitude">
          <value>73.7115319</value>
        </Data>
        <Data name="Rating">
          <value>4.2</value>
        </Data>
        <Data name="Place_ID">
          <value>ChIJyfdm7k_s3TsRE7XzcEvoB3M</value>
        </Data>
        <Data name="Distance_m">
          <value>2146.0</value>
        </Data>
      </ExtendedData>
      <Point>
        <coordinates>
          73.7115319,20.0065719,0
        </coordinates>
      </Point>
    </Placemark>
  </Document>
</kml>
